{"type":"FeatureCollection","name":"library_TPE","features":[{"type":"Feature","geometry":{"type":"Point","coordinates":[121.502407,25.134568]},"properties":{"name":"北投分館","address":"光明路 251號"}},{"type":"Feature","geometry":{"type":"Point","coordinates":[121.489327,25.140909]},"properties":{"name":"稻香分館","address":"稻香路 81號7-9樓"}},{"type":"Feature","geometry":{"type":"Point","coordinates":[121.522137,25.113627]},"properties":{"name":"石牌分館","address":"明德路 208巷5號3-10樓"}},{"type":"Feature","geometry":{"type":"Point","coordinates":[121.507207,25.127758]},"properties":{"name":"清江分館","address":"公館路 198號3樓"}},{"type":"Feature","geometry":{"type":"Point","coordinates":[121.508606,25.119796]},"properties":{"name":"吉利分館","address":"立農街1段 366號5-8樓"}},{"type":"Feature","geometry":{"type":"Point","coordinates":[121.516252,25.112364]},"properties":{"name":"永明民眾閱覽室","address":"石牌路2段 115號7-8樓"}},{"type":"Feature","geometry":{"type":"Point","coordinates":[121.493267,25.145566]},"properties":{"name":"秀山民眾閱覽室","address":"中和街 534號5-9樓"}},{"type":"Feature","geometry":{"type":"Point","coordinates":[121.514637,25.119524]},"properties":{"name":"陽明借還書工作站","address":"立農街二段 155號"}},{"type":"Feature","geometry":{"type":"Point","coordinates":[121.464036,25.11764]},"properties":{"name":"關渡宮借還書工作站","address":"知行路 360號"}},{"type":"Feature","geometry":{"type":"Point","coordinates":[121.511196,25.057679]},"properties":{"name":"葫蘆堵分館","address":"延平北路5段 136巷1號3-9樓"}},{"type":"Feature","geometry":{"type":"Point","coordinates":[121.521715,25.051516]},"properties":{"name":"天母分館","address":"中山北路7段 154巷6號3-4樓"}},{"type":"Feature","geometry":{"type":"Point","coordinates":[121.518343,25.095784]},"properties":{"name":"士林分館臨時替代館(天文館)","address":"基河路 363號2樓"}},{"type":"Feature","geometry":{"type":"Point","coordinates":[121.521902,25.093833]},"properties":{"name":"李科永紀念圖書館","address":"中正路 15 號（福林公園內）"}},{"type":"Feature","geometry":{"type":"Point","coordinates":[121.517822,25.086206]},"properties":{"name":"百齡智慧圖書館","address":"福港街 205 號（百齡國小內）"}},{"type":"Feature","geometry":{"type":"Point","coordinates":[121.511827,25.054319]},"properties":{"name":"社子島智慧圖書館","address":"延平北路9段 80號2樓（中洲區民活動中心2樓）"}},{"type":"Feature","geometry":{"type":"Point","coordinates":[121.596854,25.069103]},"properties":{"name":"內湖分館","address":"民權東路6段 99號6樓"}},{"type":"Feature","geometry":{"type":"Point","coordinates":[121.612593,25.067567]},"properties":{"name":"東湖分館","address":"五分街6號"}},{"type":"Feature","geometry":{"type":"Point","coordinates":[121.581919,25.079141]},"properties":{"name":"西湖分館","address":"內湖路1段 594號"}},{"type":"Feature","geometry":{"type":"Point","coordinates":[121.581919,25.079141]},"properties":{"name":"西中分館","address":"內湖路1段 285巷 66號1-2 樓（西湖國中）"}},{"type":"Feature","geometry":{"type":"Point","coordinates":[121.551413,25.056742]},"properties":{"name":"民生分館","address":"敦化北路 199巷5號4-5樓"}},{"type":"Feature","geometry":{"type":"Point","coordinates":[121.567144,25.058558]},"properties":{"name":"三民分館","address":"民生東路5段 163-1號5-6樓"}},{"type":"Feature","geometry":{"type":"Point","coordinates":[121.530157,25.048405]},"properties":{"name":"中崙分館","address":"長安東路2段 229號7-10樓"}},{"type":"Feature","geometry":{"type":"Point","coordinates":[121.551471,25.05432]},"properties":{"name":"啟明分館","address":"敦化北路 155巷 76號"}},{"type":"Feature","geometry":{"type":"Point","coordinates":[121.551947,25.063162]},"properties":{"name":"松山機場智慧圖書館","address":"敦化北路 338 號地下1樓 （近松山機場捷運站3 號出口）"}},{"type":"Feature","geometry":{"type":"Point","coordinates":[121.577646,25.043018]},"properties":{"name":"永春分館","address":"松山路 294號3-4樓"}},{"type":"Feature","geometry":{"type":"Point","coordinates":[121.560752,25.02855]},"properties":{"name":"三興分館","address":"吳興街 156巷6號4-5樓"}},{"type":"Feature","geometry":{"type":"Point","coordinates":[121.568348,25.024392]},"properties":{"name":"六合分館","address":"松仁路 240巷 19號3-5樓"}},{"type":"Feature","geometry":{"type":"Point","coordinates":[121.593577,25.038864]},"properties":{"name":"廣慈分館","address":"福德街 86號3-4樓"}},{"type":"Feature","geometry":{"type":"Point","coordinates":[121.608261,25.05486]},"properties":{"name":"南港分館","address":"南港路一段 350號"}},{"type":"Feature","geometry":{"type":"Point","coordinates":[121.643083,25.02962]},"properties":{"name":"舊莊分館","address":"舊莊街1段 91巷 11號2-5樓"}},{"type":"Feature","geometry":{"type":"Point","coordinates":[121.586998,25.047561]},"properties":{"name":"龍華民眾閱覽室","address":"東新街 63巷8號"}},{"type":"Feature","geometry":{"type":"Point","coordinates":[121.594492,25.054029]},"properties":{"name":"北原會館借還書工作站","address":"向陽路 49號4樓"}},{"type":"Feature","geometry":{"type":"Point","coordinates":[121.613712,25.035522]},"properties":{"name":"親子美育數位圖書館","address":"研究院路2段 61巷 15號1-2"}},{"type":"Feature","geometry":{"type":"Point","coordinates":[121.539893,25.001236]},"properties":{"name":"景美分館","address":"羅斯福路5段 176巷 50號2-4樓"}},{"type":"Feature","geometry":{"type":"Point","coordinates":[121.569183,24.988495]},"properties":{"name":"木柵分館","address":"保儀路 13巷3號3-4樓"}},{"type":"Feature","geometry":{"type":"Point","coordinates":[121.576542,24.988631]},"properties":{"name":"萬興分館","address":"萬壽路 27號4-5樓"}},{"type":"Feature","geometry":{"type":"Point","coordinates":[121.55271,25.001882]},"properties":{"name":"文山分館","address":"興隆路2段 160號7-9樓"}},{"type":"Feature","geometry":{"type":"Point","coordinates":[121.55627,24.97971]},"properties":{"name":"力行分館","address":"一壽街 22號5-8樓"}},{"type":"Feature","geometry":{"type":"Point","coordinates":[121.541913,24.990001]},"properties":{"name":"景新分館","address":"景後街 151號5-10樓"}},{"type":"Feature","geometry":{"type":"Point","coordinates":[121.561554,25.04116]},"properties":{"name":"安康民眾閱覽室","address":"興隆路4段 105巷1號4樓"}},{"type":"Feature","geometry":{"type":"Point","coordinates":[121.56849,25.001544]},"properties":{"name":"萬芳民眾閱覽室","address":"萬美街1段 25號1-2樓"}},{"type":"Feature","geometry":{"type":"Point","coordinates":[121.53358,25.064383]},"properties":{"name":"中山分館","address":"松江路 367號8樓"}},{"type":"Feature","geometry":{"type":"Point","coordinates":[121.520927,25.050892]},"properties":{"name":"長安分館","address":"長安西路3號4樓"}},{"type":"Feature","geometry":{"type":"Point","coordinates":[121.546611,25.081856]},"properties":{"name":"大直分館","address":"大直街 25號3-5樓"}},{"type":"Feature","geometry":{"type":"Point","coordinates":[121.603644,25.07158]},"properties":{"name":"恆安民眾閱覽室","address":"民權東路1段 71巷 19 號／TEL:2593-5482"}},{"type":"Feature","geometry":{"type":"Point","coordinates":[121.512075,25.059249]},"properties":{"name":"延平分館","address":"保安街 47號"}},{"type":"Feature","geometry":{"type":"Point","coordinates":[121.514207,25.064426]},"properties":{"name":"大同分館","address":"重慶北路3段 318號"}},{"type":"Feature","geometry":{"type":"Point","coordinates":[121.516369,25.056981]},"properties":{"name":"建成分館","address":"民生西路 198之 20號4樓"}},{"type":"Feature","geometry":{"type":"Point","coordinates":[121.515139,25.06602]},"properties":{"name":"蘭州民眾閱覽室","address":"昌吉街 57號4 樓之 6"}},{"type":"Feature","geometry":{"type":"Point","coordinates":[121.502487,25.038464]},"properties":{"name":"龍山分館","address":"桂林路 65巷6號"}},{"type":"Feature","geometry":{"type":"Point","coordinates":[121.498126,25.022612]},"properties":{"name":"東園分館","address":"東園街 199號"}},{"type":"Feature","geometry":{"type":"Point","coordinates":[121.501762,25.032232]},"properties":{"name":"西園分館","address":"興寧街6號3-6樓"}},{"type":"Feature","geometry":{"type":"Point","coordinates":[121.495699,25.027874]},"properties":{"name":"萬華分館","address":"東園街 19號5-7樓"}},{"type":"Feature","geometry":{"type":"Point","coordinates":[121.494606,25.036238]},"properties":{"name":"柳鄉民眾閱覽室","address":"環河南路2段 102號4樓"}},{"type":"Feature","geometry":{"type":"Point","coordinates":[121.521167,25.020827]},"properties":{"name":"太陽圖書館暨節能展示館","address":"青年路 65 號（青年公園內）"}},{"type":"Feature","geometry":{"type":"Point","coordinates":[121.537156,25.024467]},"properties":{"name":"總館","address":"建國南路2段 125號"}},{"type":"Feature","geometry":{"type":"Point","coordinates":[121.554907,24.981113]},"properties":{"name":"道藩分館","address":"辛亥路3段 11號3樓"}},{"type":"Feature","geometry":{"type":"Point","coordinates":[121.555638,25.03622]},"properties":{"name":"延吉民眾閱覽室","address":"延吉街 236巷 17號3-4樓"}},{"type":"Feature","geometry":{"type":"Point","coordinates":[121.555518,25.019466]},"properties":{"name":"成功民眾閱覽室","address":"和平東路2段 311巷 29號4樓"}},{"type":"Feature","geometry":{"type":"Point","coordinates":[121.529387,25.028501]},"properties":{"name":"龍安民眾閱覽室","address":"永康街 60號2-3樓"}},{"type":"Feature","geometry":{"type":"Point","coordinates":[121.545213,25.035492]},"properties":{"name":"東區地下街智慧館","address":"大安路1段 77 號（東區地下街3 號店鋪）"}},{"type":"Feature","geometry":{"type":"Point","coordinates":[121.537427,25.006878]},"properties":{"name":"王貫英先生紀念圖書館","address":"汀州路2段 265號"}},{"type":"Feature","geometry":{"type":"Point","coordinates":[121.526363,25.041384]},"properties":{"name":"城中分館","address":"濟南路2段 46號3樓"}},{"type":"Feature","geometry":{"type":"Point","coordinates":[121.545006,25.133741]},"properties":{"name":"南機場借還書工作站","address":"中華路2段 315巷 16號1樓"}},{"type":"Feature","geometry":{"type":"Point","coordinates":[121.510441,25.025317]},"properties":{"name":"古亭智慧圖書館","address":"寧波西街 286號"}}]}