{"type":"FeatureCollection","name":"library_NEW_TPE","features":[{"type":"Feature","geometry":{"type":"Point","coordinates":[121.455033,25.00154]},"properties":{"name":"總館","address":"板橋區貴興路139號"}},{"type":"Feature","geometry":{"type":"Point","coordinates":[121.399865,25.146582]},"properties":{"name":"八里分館","address":"八里區舊城里舊城路19號5~6樓"}},{"type":"Feature","geometry":{"type":"Point","coordinates":[121.450946,25.130774]},"properties":{"name":"八里龍形圖書閱覽室","address":"八里區龍形二街2之2號4樓"}},{"type":"Feature","geometry":{"type":"Point","coordinates":[121.5027,25.259503]},"properties":{"name":"三芝分館","address":"三芝區淡金路1段37號"}},{"type":"Feature","geometry":{"type":"Point","coordinates":[121.496095,25.080796]},"properties":{"name":"三重五常分館","address":"三重區五華街7巷30號2樓"}},{"type":"Feature","geometry":{"type":"Point","coordinates":[121.492323,25.071864]},"properties":{"name":"三重田中分館","address":"三重區忠孝路3段40巷51號2~4樓"}},{"type":"Feature","geometry":{"type":"Point","coordinates":[121.497317,25.074459]},"properties":{"name":"三重崇德分館","address":"三重區仁孝街62號2樓"}},{"type":"Feature","geometry":{"type":"Point","coordinates":[121.490494,25.068851]},"properties":{"name":"三重分館","address":"三重區自強路1段158號"}},{"type":"Feature","geometry":{"type":"Point","coordinates":[121.487662,25.08367]},"properties":{"name":"三重東區分館","address":"三重區溪尾街303號"}},{"type":"Feature","geometry":{"type":"Point","coordinates":[121.491659,25.056911]},"properties":{"name":"三重南區分館","address":"三重區重安街70號3樓"}},{"type":"Feature","geometry":{"type":"Point","coordinates":[121.4925,25.071596]},"properties":{"name":"三重培德分館","address":"三重區忠孝路2段35號1-2樓"}},{"type":"Feature","geometry":{"type":"Point","coordinates":[121.484481,25.055628]},"properties":{"name":"三重智慧型借還書站","address":"新北市三重區捷運路36號"}},{"type":"Feature","geometry":{"type":"Point","coordinates":[121.376455,24.929605]},"properties":{"name":"三峽分館","address":"三峽區永安街9巷5號2樓"}},{"type":"Feature","geometry":{"type":"Point","coordinates":[121.377771,24.944196]},"properties":{"name":"三峽北大分館","address":"三峽區學成路396號3-4樓"}},{"type":"Feature","geometry":{"type":"Point","coordinates":[121.452123,24.987185]},"properties":{"name":"土城柑林埤圖書閱覽室","address":"土城區學享街55號3樓"}},{"type":"Feature","geometry":{"type":"Point","coordinates":[121.443011,24.980879]},"properties":{"name":"土城祖田圖書閱覽室","address":"土城區中央路4段283-1號4樓"}},{"type":"Feature","geometry":{"type":"Point","coordinates":[121.461509,24.983377]},"properties":{"name":"土城清水圖書閱覽室","address":"土城區清水路243號2樓"}},{"type":"Feature","geometry":{"type":"Point","coordinates":[121.44301,24.975074]},"properties":{"name":"土城分館","address":"土城區中正路18號7樓"}},{"type":"Feature","geometry":{"type":"Point","coordinates":[121.415179,24.95816]},"properties":{"name":"土城親子分館","address":"土城區中州路28巷30號4樓"}},{"type":"Feature","geometry":{"type":"Point","coordinates":[121.499668,24.996108]},"properties":{"name":"中和大同圖書閱覽室","address":"中和區圓通路121巷5號1樓"}},{"type":"Feature","geometry":{"type":"Point","coordinates":[121.505768,24.988905]},"properties":{"name":"中和分館","address":"中和區南山路236號6樓"}},{"type":"Feature","geometry":{"type":"Point","coordinates":[121.47413,25.003573]},"properties":{"name":"中和員山分館","address":"中和區民享街37號2樓"}},{"type":"Feature","geometry":{"type":"Point","coordinates":[121.449355,25.098099]},"properties":{"name":"五股成州圖書閱覽室","address":"五股區西雲路267號2樓"}},{"type":"Feature","geometry":{"type":"Point","coordinates":[121.439817,25.082468]},"properties":{"name":"五股分館","address":"五股區工商路1號3樓"}},{"type":"Feature","geometry":{"type":"Point","coordinates":[121.433452,25.071538]},"properties":{"name":"五股水碓分館","address":"五股區明德路10號4樓"}},{"type":"Feature","geometry":{"type":"Point","coordinates":[121.457261,25.079366]},"properties":{"name":"五股更新圖書閱覽室","address":"五股區更洲路47號3樓"}},{"type":"Feature","geometry":{"type":"Point","coordinates":[121.446433,25.094598]},"properties":{"name":"五股成功分館","address":"五股區西雲路165號4~5樓"}},{"type":"Feature","geometry":{"type":"Point","coordinates":[121.440784,25.083444]},"properties":{"name":"五股守讓堂\n(閱覽室限館內閱覽不外借)","address":"五股區新五路二段169號"}},{"type":"Feature","geometry":{"type":"Point","coordinates":[121.735425,25.0248]},"properties":{"name":"平溪分館","address":"平溪區公園街17號3樓"}},{"type":"Feature","geometry":{"type":"Point","coordinates":[121.519921,24.998018]},"properties":{"name":"永和民權分館","address":"永和區民權路60號7樓"}},{"type":"Feature","geometry":{"type":"Point","coordinates":[121.515312,25.016856]},"properties":{"name":"永和忠孝圖書閱覽室","address":"永和區忠孝街26巷8號3樓"}},{"type":"Feature","geometry":{"type":"Point","coordinates":[121.519933,25.008657]},"properties":{"name":"永和分館","address":"永和區國光路2號"}},{"type":"Feature","geometry":{"type":"Point","coordinates":[121.505222,25.013011]},"properties":{"name":"永和保生分館","address":"永和區新生路218號5樓"}},{"type":"Feature","geometry":{"type":"Point","coordinates":[121.57531,25.28024]},"properties":{"name":"石門分館","address":"石門區尖鹿里中央路9-3號"}},{"type":"Feature","geometry":{"type":"Point","coordinates":[121.678928,24.975403]},"properties":{"name":"石碇分館","address":"石碇區碇坪路1段65號"}},{"type":"Feature","geometry":{"type":"Point","coordinates":[121.658984,25.063841]},"properties":{"name":"汐止分館","address":"汐止區新台五路一段268號5樓"}},{"type":"Feature","geometry":{"type":"Point","coordinates":[121.621075,25.054734]},"properties":{"name":"汐止大同分館","address":"汐止區大同路2段451號"}},{"type":"Feature","geometry":{"type":"Point","coordinates":[121.654495,25.070078]},"properties":{"name":"汐止江北分館","address":"汐止區汐萬路一段81號2樓"}},{"type":"Feature","geometry":{"type":"Point","coordinates":[121.670575,25.079097]},"properties":{"name":"汐止長安分館","address":"汐止區長興街一段50號3樓"}},{"type":"Feature","geometry":{"type":"Point","coordinates":[121.672036,25.069151]},"properties":{"name":"汐止茄苳分館","address":"汐止區茄苳路225巷35號"}},{"type":"Feature","geometry":{"type":"Point","coordinates":[121.631708,25.063989]},"properties":{"name":"汐止北峰圖書閱覽室","address":"汐止區福德一路272巷5號"}},{"type":"Feature","geometry":{"type":"Point","coordinates":[121.619967,25.050534]},"properties":{"name":"汐止橫科圖書閱覽室","address":"汐止區橫科路117號3樓"}},{"type":"Feature","geometry":{"type":"Point","coordinates":[121.712738,24.937042]},"properties":{"name":"坪林分館","address":"坪林區國中路3號"}},{"type":"Feature","geometry":{"type":"Point","coordinates":[121.364058,25.069734]},"properties":{"name":"林口分館","address":"林口區忠孝二路55號4~5樓"}},{"type":"Feature","geometry":{"type":"Point","coordinates":[121.377252,25.068776]},"properties":{"name":"林口東勢閱覽室","address":"林口區麗園一街35號2樓(東勢市場2樓)"}},{"type":"Feature","geometry":{"type":"Point","coordinates":[121.39145,25.077791]},"properties":{"name":"林口西林圖書閱覽室","address":"林口區林口路15號3樓之1(林口市場3樓)"}},{"type":"Feature","geometry":{"type":"Point","coordinates":[121.374309,25.074436]},"properties":{"name":"林口李科永圖書館","address":"新北市林口區公園路192號"}},{"type":"Feature","geometry":{"type":"Point","coordinates":[121.471899,25.025537]},"properties":{"name":"板橋江子翠分館","address":"板橋區莊敬路62號"}},{"type":"Feature","geometry":{"type":"Point","coordinates":[121.457692,25.009668]},"properties":{"name":"板橋分館","address":"板橋區文化路1段23號"}},{"type":"Feature","geometry":{"type":"Point","coordinates":[121.463237,25.025123]},"properties":{"name":"板橋四維分館","address":"板橋區陽明街168號"}},{"type":"Feature","geometry":{"type":"Point","coordinates":[121.47682,25.01366]},"properties":{"name":"板橋民生圖書閱覽室","address":"板橋區民生路一段30號2樓"}},{"type":"Feature","geometry":{"type":"Point","coordinates":[121.460104,24.997434]},"properties":{"name":"板橋忠孝分館","address":"板橋區國慶路149巷21弄16號2-3樓"}},{"type":"Feature","geometry":{"type":"Point","coordinates":[121.44539,25.000521]},"properties":{"name":"板橋浮洲圖書閱覽室","address":"板橋區大觀路二段163號2樓"}},{"type":"Feature","geometry":{"type":"Point","coordinates":[121.453538,25.020347]},"properties":{"name":"板橋國光圖書閱覽室","address":"板橋區中正路375巷48號3樓"}},{"type":"Feature","geometry":{"type":"Point","coordinates":[121.431579,24.990281]},"properties":{"name":"板橋溪北分館","address":"板橋區篤行路二段133號"}},{"type":"Feature","geometry":{"type":"Point","coordinates":[121.472261,25.02231]},"properties":{"name":"板橋萬板親子圖書閱覽室","address":"板橋區萬板路28號"}},{"type":"Feature","geometry":{"type":"Point","coordinates":[121.464963,25.015102]},"properties":{"name":"IReading智慧型借還書站","address":"新北市板橋區新站路66號(捷運環狀線板橋車站)"}},{"type":"Feature","geometry":{"type":"Point","coordinates":[121.45173,25.00082]},"properties":{"name":"市府閱讀小棧","address":"新北市板橋區中山路1段161號(新北市政府大樓一樓南門)"}},{"type":"Feature","geometry":{"type":"Point","coordinates":[121.62857,25.21795]},"properties":{"name":"金山分館","address":"金山區五湖里龜子山8號"}},{"type":"Feature","geometry":{"type":"Point","coordinates":[121.423627,25.039866]},"properties":{"name":"泰山貴子分館","address":"泰山區工專路22號3樓"}},{"type":"Feature","geometry":{"type":"Point","coordinates":[121.433653,25.056131]},"properties":{"name":"泰山分館","address":"泰山區全興路212號5樓"}},{"type":"Feature","geometry":{"type":"Point","coordinates":[121.434895,25.061662]},"properties":{"name":"泰山親子圖書閱覽室","address":"泰山區楓江路26巷26號3樓"}},{"type":"Feature","geometry":{"type":"Point","coordinates":[121.546944,24.863618]},"properties":{"name":"烏來區立圖書館","address":"烏來區烏來里環山路82巷98號4樓"}},{"type":"Feature","geometry":{"type":"Point","coordinates":[121.926916,25.054775]},"properties":{"name":"貢寮分館","address":"貢寮區真理里仁愛路79號3樓"}},{"type":"Feature","geometry":{"type":"Point","coordinates":[121.437958,25.172808]},"properties":{"name":"淡水分館","address":"淡水區文化路65號"}},{"type":"Feature","geometry":{"type":"Point","coordinates":[121.444153,25.178033]},"properties":{"name":"淡水水碓分館","address":"淡水區中山北路一段158號6樓"}},{"type":"Feature","geometry":{"type":"Point","coordinates":[121.461554,25.138047]},"properties":{"name":"淡水竹圍分館","address":"淡水區民生路27號5樓"}},{"type":"Feature","geometry":{"type":"Point","coordinates":[121.445062,25.168781]},"properties":{"name":"淡海小書房","address":"淡水區中正東路2段68號 "}},{"type":"Feature","geometry":{"type":"Point","coordinates":[121.615966,25.002523]},"properties":{"name":"深坑分館","address":"深坑區深坑街10號1樓"}},{"type":"Feature","geometry":{"type":"Point","coordinates":[121.542555,24.971238]},"properties":{"name":"新店分館","address":"新店區北新路3段105巷2號3樓"}},{"type":"Feature","geometry":{"type":"Point","coordinates":[121.545762,24.981347]},"properties":{"name":"新店寶興圖書閱覽室","address":"新店區寶中路65巷59號3樓"}},{"type":"Feature","geometry":{"type":"Point","coordinates":[121.542372,24.968144]},"properties":{"name":"新店北新圖書閱覽室","address":"新店區北新路一段92號2樓"}},{"type":"Feature","geometry":{"type":"Point","coordinates":[121.527603,24.975446]},"properties":{"name":"新店中央圖書閱覽室","address":"新店區中央五街60號2樓"}},{"type":"Feature","geometry":{"type":"Point","coordinates":[121.53709,24.956646]},"properties":{"name":"新店碧潭圖書閱覽室","address":"新店區新店路207號4樓"}},{"type":"Feature","geometry":{"type":"Point","coordinates":[121.533329,24.972994]},"properties":{"name":"新店福民閱覽室","address":"新店區福園街8-1號3樓"}},{"type":"Feature","geometry":{"type":"Point","coordinates":[121.536918,24.973147]},"properties":{"name":"新店中正閱覽室","address":"新店區中正路275巷17-1號"}},{"type":"Feature","geometry":{"type":"Point","coordinates":[121.540702,24.975387]},"properties":{"name":"新店仁愛圖書閱覽室","address":"新店區建國路58號2樓"}},{"type":"Feature","geometry":{"type":"Point","coordinates":[121.51657,24.967379]},"properties":{"name":"新店柴埕圖書閱覽室","address":"新店區安民街79號3樓"}},{"type":"Feature","geometry":{"type":"Point","coordinates":[121.534942,24.991423]},"properties":{"name":"新店大鵬圖書閱覽室","address":"新店區中正路700巷26號2樓"}},{"type":"Feature","geometry":{"type":"Point","coordinates":[121.547415,24.916761]},"properties":{"name":"新店龜山圖書閱覽室","address":"新店區新烏路3段136號1樓"}},{"type":"Feature","geometry":{"type":"Point","coordinates":[121.536375,24.971366]},"properties":{"name":"新店三民圖書閱覽室","address":"新店區三民路20-2號2樓"}},{"type":"Feature","geometry":{"type":"Point","coordinates":[121.516442,24.963869]},"properties":{"name":"新北市青少年圖書館","address":"新店區安康路2段151號"}},{"type":"Feature","geometry":{"type":"Point","coordinates":[121.542372,24.968144]},"properties":{"name":"新店文史館","address":"新店區北新路一段92號"}},{"type":"Feature","geometry":{"type":"Point","coordinates":[121.451967,25.046313]},"properties":{"name":"新莊中港分館","address":"新莊區中港路350號4~8樓"}},{"type":"Feature","geometry":{"type":"Point","coordinates":[121.423752,25.024296]},"properties":{"name":"新莊福營分館","address":"新莊區四維路9號3~5樓"}},{"type":"Feature","geometry":{"type":"Point","coordinates":[121.452248,25.036409]},"properties":{"name":"新莊分館","address":"新莊區中華路一段2號5~6樓"}},{"type":"Feature","geometry":{"type":"Point","coordinates":[121.428004,25.017184]},"properties":{"name":"新莊西盛分館","address":"新莊區西盛街216號"}},{"type":"Feature","geometry":{"type":"Point","coordinates":[121.45597,25.04799]},"properties":{"name":"新莊聯合分館","address":"新莊區自由街1號"}},{"type":"Feature","geometry":{"type":"Point","coordinates":[121.41778,25.021885]},"properties":{"name":"新莊裕民分館","address":"新莊區裕民街136號4~5樓"}},{"type":"Feature","geometry":{"type":"Point","coordinates":[121.459484,25.055184]},"properties":{"name":"新莊頭前智慧圖書館","address":"新莊區中原路2號(頭前國中樂活館3樓)"}},{"type":"Feature","geometry":{"type":"Point","coordinates":[121.808181,25.107277]},"properties":{"name":"瑞芳分館","address":"瑞芳區民權街17號2樓"}},{"type":"Feature","geometry":{"type":"Point","coordinates":[121.804286,25.106377]},"properties":{"name":"瑞芳東和圖書閱覽室","address":"瑞芳區中山路20號3樓"}},{"type":"Feature","geometry":{"type":"Point","coordinates":[121.689761,25.179719]},"properties":{"name":"萬里分館","address":"萬里區瑪鋉路221號4樓"}},{"type":"Feature","geometry":{"type":"Point","coordinates":[121.429442,24.997607]},"properties":{"name":"樹林分館","address":"樹林區樹新路40-7號3-4樓"}},{"type":"Feature","geometry":{"type":"Point","coordinates":[121.414836,24.98389]},"properties":{"name":"樹林東昇分館","address":"樹林區中山路二段80號3樓"}},{"type":"Feature","geometry":{"type":"Point","coordinates":[121.388525,24.955552]},"properties":{"name":"樹林柑園圖書閱覽室","address":"樹林區佳園路3段128號2樓"}},{"type":"Feature","geometry":{"type":"Point","coordinates":[121.404343,25.016611]},"properties":{"name":"樹林三多圖書閱覽室","address":"樹林區福興街17號2樓"}},{"type":"Feature","geometry":{"type":"Point","coordinates":[121.420377,24.995379]},"properties":{"name":"樹林大安圖書閱覽室","address":"樹林區大安路118-1號"}},{"type":"Feature","geometry":{"type":"Point","coordinates":[121.389858,24.973637]},"properties":{"name":"樹林樂山圖書閱覽室","address":"樹林區中和街38號"}},{"type":"Feature","geometry":{"type":"Point","coordinates":[121.422187,24.979845]},"properties":{"name":"樹林彭厝圖書閱覽室","address":"樹林區國凱街65號3樓"}},{"type":"Feature","geometry":{"type":"Point","coordinates":[121.864705,25.035318]},"properties":{"name":"雙溪分館","address":"雙溪區太平路50號3樓"}},{"type":"Feature","geometry":{"type":"Point","coordinates":[121.459174,25.090359]},"properties":{"name":"蘆洲永平分館","address":"蘆洲區永平街1號3樓"}},{"type":"Feature","geometry":{"type":"Point","coordinates":[121.462587,25.078589]},"properties":{"name":"蘆洲永安圖書閱覽室","address":"蘆洲區永安南路二段134號2樓"}},{"type":"Feature","geometry":{"type":"Point","coordinates":[121.46194,25.080733]},"properties":{"name":"蘆洲長安分館","address":"蘆洲區長安街96號3樓"}},{"type":"Feature","geometry":{"type":"Point","coordinates":[121.481612,25.084821]},"properties":{"name":"蘆洲集賢分館","address":"蘆洲區集賢路245號4樓"}},{"type":"Feature","geometry":{"type":"Point","coordinates":[121.483695,25.085719]},"properties":{"name":"蘆洲兒童親子分館","address":"蘆洲區集賢路221巷11號2~3 樓"}},{"type":"Feature","geometry":{"type":"Point","coordinates":[121.471279,25.091017]},"properties":{"name":"蘆洲仁愛智慧圖書館","address":"蘆洲區民權路143號2樓"}},{"type":"Feature","geometry":{"type":"Point","coordinates":[121.349518,24.957359]},"properties":{"name":"鶯歌分館","address":"鶯歌區中山路150號"}},{"type":"Feature","geometry":{"type":"Point","coordinates":[121.337687,24.935847]},"properties":{"name":"鶯歌二甲圖書閱覽室","address":"鶯歌區二甲路288號2樓"}}]}