{"type":"FeatureCollection","name":"Shopping_District_TPE","features":[{"type":"Feature","geometry":{"type":"Point","coordinates":[121.502407,25.134568]},"properties":{"name":"新北投溫泉商圈","address":"台北市北投區光明路"}},{"type":"Feature","geometry":{"type":"Point","coordinates":[121.529834,25.133066]},"properties":{"name":"行義路溫泉美食商圈","address":"台北市北投區行義路"}},{"type":"Feature","geometry":{"type":"Point","coordinates":[121.517416,25.11712]},"properties":{"name":"石牌捷運商圈","address":"台北市北投區石牌路二段"}},{"type":"Feature","geometry":{"type":"Point","coordinates":[121.523135,25.094644]},"properties":{"name":"士林捷運站商圈","address":"台北市士林區中正路"}},{"type":"Feature","geometry":{"type":"Point","coordinates":[121.526808,25.090946]},"properties":{"name":"士林觀光夜市商圈","address":"台北市士林區文林路"}},{"type":"Feature","geometry":{"type":"Point","coordinates":[121.532154,25.116738]},"properties":{"name":"天母商圈","address":"台北市士林區天母東路"}},{"type":"Feature","geometry":{"type":"Point","coordinates":[121.516276,25.064002]},"properties":{"name":"承德路中古汽車商圈","address":"台北市大同區承德路三段"}},{"type":"Feature","geometry":{"type":"Point","coordinates":[121.511491,25.058415]},"properties":{"name":"朝陽服飾材料商圈","address":"台北市大同區延平北路二段"}},{"type":"Feature","geometry":{"type":"Point","coordinates":[121.509246,25.062372]},"properties":{"name":"迪化街商圈","address":"台北市大同區迪化街一段"}},{"type":"Feature","geometry":{"type":"Point","coordinates":[121.517324,25.049772]},"properties":{"name":"後站商圈","address":"台北市大同區華陰街"}},{"type":"Feature","geometry":{"type":"Point","coordinates":[121.517324,25.049772]},"properties":{"name":"華陰街商圈","address":"台北市大同區華陰街"}},{"type":"Feature","geometry":{"type":"Point","coordinates":[121.51599,25.063496]},"properties":{"name":"大龍峒商圈","address":"台北市大同區哈密街"}},{"type":"Feature","geometry":{"type":"Point","coordinates":[121.511035,25.065742]},"properties":{"name":"臺北大橋頭延三商圈","address":"台北市大同區延平北路三段"}},{"type":"Feature","geometry":{"type":"Point","coordinates":[121.51529,25.057892]},"properties":{"name":"寧夏夜市商圈","address":"台北市大同區寧夏路"}},{"type":"Feature","geometry":{"type":"Point","coordinates":[121.521729,25.065774]},"properties":{"name":"圓山商圈","address":"台北市中山區中山北路三段"}},{"type":"Feature","geometry":{"type":"Point","coordinates":[121.519568,25.033161]},"properties":{"name":"愛國東路婚紗商圈","address":"台北市中正區愛國東路"}},{"type":"Feature","geometry":{"type":"Point","coordinates":[121.512368,25.042811]},"properties":{"name":"沅陵街商圈","address":"台北市中正區沅陵街"}},{"type":"Feature","geometry":{"type":"Point","coordinates":[121.508239,25.042633]},"properties":{"name":"中華路影音商圈","address":"台北市萬華區中華路一段"}},{"type":"Feature","geometry":{"type":"Point","coordinates":[121.51487,25.046795]},"properties":{"name":"北門相機商圈","address":"台北市中正區忠孝西路一段"}},{"type":"Feature","geometry":{"type":"Point","coordinates":[121.513726,25.045663]},"properties":{"name":"重慶南路書店商圈","address":"台北市中正區重慶南路一段"}},{"type":"Feature","geometry":{"type":"Point","coordinates":[121.521977,25.026084]},"properties":{"name":"南昌家具商圈","address":"台北市中正區南昌路二段"}},{"type":"Feature","geometry":{"type":"Point","coordinates":[121.505594,25.042373]},"properties":{"name":"大光華商圈","address":"台北市萬華區西寧南路"}},{"type":"Feature","geometry":{"type":"Point","coordinates":[121.536106,25.011849]},"properties":{"name":"臺大公館商圈","address":"台北市中正區羅斯福路四段"}},{"type":"Feature","geometry":{"type":"Point","coordinates":[121.499546,25.040799]},"properties":{"name":"萬華街區商圈","address":"台北市萬華區西園路一段"}},{"type":"Feature","geometry":{"type":"Point","coordinates":[121.499546,25.040799]},"properties":{"name":"艋舺商圈","address":"台北市萬華區西園路一段"}},{"type":"Feature","geometry":{"type":"Point","coordinates":[121.496771,25.037332]},"properties":{"name":"艋舺夜市商圈","address":"台北市萬華區廣州街"}},{"type":"Feature","geometry":{"type":"Point","coordinates":[121.503075,25.043962]},"properties":{"name":"西門町商圈","address":"台北市萬華區峨眉街"}},{"type":"Feature","geometry":{"type":"Point","coordinates":[121.504098,25.034394]},"properties":{"name":"和平西路鳥鋪聚集區","address":"台北市萬華區和平西路三段"}},{"type":"Feature","geometry":{"type":"Point","coordinates":[121.525065,25.064481]},"properties":{"name":"晴光商圈","address":"台北市中山區雙城街"}},{"type":"Feature","geometry":{"type":"Point","coordinates":[121.535942,25.053442]},"properties":{"name":"四平陽光商圈","address":"台北市中山區四平街"}},{"type":"Feature","geometry":{"type":"Point","coordinates":[121.521699,25.055454]},"properties":{"name":"中山北路婚紗商圈","address":"台北市中山區中山北路二段"}},{"type":"Feature","geometry":{"type":"Point","coordinates":[121.521699,25.055454]},"properties":{"name":"晶華酒店、欣欣百貨周邊","address":"台北市中山區中山北路二段"}},{"type":"Feature","geometry":{"type":"Point","coordinates":[121.525543,25.059297]},"properties":{"name":"條通商圈","address":"台北市中山區林森北路"}},{"type":"Feature","geometry":{"type":"Point","coordinates":[121.521548,25.051666]},"properties":{"name":"南西心中山商圈","address":"台北市中山區南京西路"}},{"type":"Feature","geometry":{"type":"Point","coordinates":[121.530307,25.063197]},"properties":{"name":"吉林路美食","address":"台北市中山區吉林路"}},{"type":"Feature","geometry":{"type":"Point","coordinates":[121.543549,25.05071]},"properties":{"name":"中山國中捷運站周邊","address":"台北市中山區復興北路"}},{"type":"Feature","geometry":{"type":"Point","coordinates":[121.540945,25.068158]},"properties":{"name":"民族濱江汽車","address":"台北市中山區民族東路"}},{"type":"Feature","geometry":{"type":"Point","coordinates":[121.556811,25.085411]},"properties":{"name":"大直商圈","address":"台北市中山區北安路"}},{"type":"Feature","geometry":{"type":"Point","coordinates":[121.609533,25.067215]},"properties":{"name":"東湖哈拉影城周邊","address":"台北市內湖區康寧路三段"}},{"type":"Feature","geometry":{"type":"Point","coordinates":[121.575249,25.061289]},"properties":{"name":"內湖量販店區","address":"台北市內湖區民善街"}},{"type":"Feature","geometry":{"type":"Point","coordinates":[121.579453,25.080933]},"properties":{"name":"內湖737商圈","address":"台北市內湖區內湖路一段737巷"}},{"type":"Feature","geometry":{"type":"Point","coordinates":[121.579453,25.080933]},"properties":{"name":"西湖商圈","address":"台北市內湖區內湖路一段"}},{"type":"Feature","geometry":{"type":"Point","coordinates":[121.543175,25.061416]},"properties":{"name":"民權水族聚集區","address":"台北市中山區民權東路三段"}},{"type":"Feature","geometry":{"type":"Point","coordinates":[121.543549,25.05071]},"properties":{"name":"南京復興捷運站周邊","address":"台北市中山區復興北路"}},{"type":"Feature","geometry":{"type":"Point","coordinates":[121.558152,25.060852]},"properties":{"name":"民生社區商圈","address":"台北市松山區民生東路五段"}},{"type":"Feature","geometry":{"type":"Point","coordinates":[121.573622,25.019138]},"properties":{"name":"吳興街商圈","address":"台北市信義區吳興街"}},{"type":"Feature","geometry":{"type":"Point","coordinates":[121.575443,25.044353]},"properties":{"name":"五分埔商圈","address":"台北市信義區永吉路"}},{"type":"Feature","geometry":{"type":"Point","coordinates":[121.566383,25.035105]},"properties":{"name":"信義計畫區百貨","address":"台北市信義區松壽路"}},{"type":"Feature","geometry":{"type":"Point","coordinates":[121.582299,25.026847]},"properties":{"name":"永春捷運站周邊","address":"台北市信義區松山路"}},{"type":"Feature","geometry":{"type":"Point","coordinates":[121.553325,25.039414]},"properties":{"name":"東區商圈","address":"台北市大安區忠孝東路四段"}},{"type":"Feature","geometry":{"type":"Point","coordinates":[121.53198,25.027386]},"properties":{"name":"永康商圈","address":"台北市大安區永康街"}},{"type":"Feature","geometry":{"type":"Point","coordinates":[121.536892,25.043539]},"properties":{"name":"建國南路藝品古玩","address":"台北市大安區建國南路一段"}},{"type":"Feature","geometry":{"type":"Point","coordinates":[121.52938,25.023694]},"properties":{"name":"師大龍泉商圈","address":"台北市大安區龍泉街"}},{"type":"Feature","geometry":{"type":"Point","coordinates":[121.554033,25.032471]},"properties":{"name":"文昌家具商圈","address":"台北市大安區文昌街"}},{"type":"Feature","geometry":{"type":"Point","coordinates":[121.540721,24.990462]},"properties":{"name":"景美夜市周邊","address":"台北市文山區景文街"}},{"type":"Feature","geometry":{"type":"Point","coordinates":[121.595138,24.968944]},"properties":{"name":"貓空商圈","address":"台北市文山區指南路三段"}},{"type":"Feature","geometry":{"type":"Point","coordinates":[121.562185,24.996741]},"properties":{"name":"萬芳商圈","address":"台北市文山區萬芳路"}},{"type":"Feature","geometry":{"type":"Point","coordinates":[121.611477,25.053164]},"properties":{"name":"南港車站CITYLINK周邊","address":"台北市南港區忠孝東路七段"}},{"type":"Feature","geometry":{"type":"Point","coordinates":[121.619929,25.058509]},"properties":{"name":"中國信託金融園區","address":"台北市南港區經貿二路"}},{"type":"Feature","geometry":{"type":"Point","coordinates":[121.521729,25.065774]},"properties":{"name":"至聖花博商圈","address":"台北市中山區中山北路三段"}},{"type":"Feature","geometry":{"type":"Point","coordinates":[121.50058,25.031145]},"properties":{"name":"加蚋商圈","address":"台北市萬華區加蚋路"}},{"type":"Feature","geometry":{"type":"Point","coordinates":[121.519953,25.054531]},"properties":{"name":"赤峰街商圈","address":"台北市大同區赤峰街"}},{"type":"Feature","geometry":{"type":"Point","coordinates":[121.533781,25.051128]},"properties":{"name":"榮町商圈","address":"台北市中山區南京東路二段"}},{"type":"Feature","geometry":{"type":"Point","coordinates":[121.535145,25.109618]},"properties":{"name":"蘭雅商圈","address":"台北市士林區德行東路"}}]}