{"type":"FeatureCollection","name":"Shopping_District_NEW_TPE","features":[{"type":"Feature","geometry":{"type":"Point","coordinates":[121.451412,25.033412]},"properties":{"name":"新莊廟街商圈","address":"新北市新莊區新莊路"}},{"type":"Feature","geometry":{"type":"Point","coordinates":[121.393312,25.077184]},"properties":{"name":"林口特色商家","address":"新北市林口區中正路133號"}},{"type":"Feature","geometry":{"type":"Point","coordinates":[121.485931,25.083512]},"properties":{"name":"三重碧華布街商圈","address":"新北市三重區碧華街"}},{"type":"Feature","geometry":{"type":"Point","coordinates":[121.471332,25.083287]},"properties":{"name":"蘆洲廟口商圈","address":"新北市蘆洲區得勝街96號"}},{"type":"Feature","geometry":{"type":"Point","coordinates":[121.430311,25.16058]},"properties":{"name":"八里特色商圈","address":"新北市八里區觀海大道36號"}},{"type":"Feature","geometry":{"type":"Point","coordinates":[121.523135,25.094644]},"properties":{"name":"淡水老街商圈","address":"新北市淡水區中正路"}},{"type":"Feature","geometry":{"type":"Point","coordinates":[121.369788,24.933568]},"properties":{"name":"三峽民權商圈","address":"新北市三峽區民權街43號"}},{"type":"Feature","geometry":{"type":"Point","coordinates":[121.34657,24.95054]},"properties":{"name":"鶯歌陶瓷老街","address":"新北市鶯歌區尖山埔路"}},{"type":"Feature","geometry":{"type":"Point","coordinates":[121.460513,25.008299]},"properties":{"name":"板橋府中商圈","address":"新北市板橋區重慶路1號"}},{"type":"Feature","geometry":{"type":"Point","coordinates":[121.508504,24.983115]},"properties":{"name":"中和商圈","address":"新北市中和區華新街92號"}},{"type":"Feature","geometry":{"type":"Point","coordinates":[121.517478,25.011033]},"properties":{"name":"永和商圈","address":"新北市永和區中興街"}},{"type":"Feature","geometry":{"type":"Point","coordinates":[121.613672,25.001362]},"properties":{"name":"深坑老街商圈","address":"新北市深坑區深坑街110號"}},{"type":"Feature","geometry":{"type":"Point","coordinates":[121.660837,24.990722]},"properties":{"name":"石碇商圈","address":"新北市石碇區石碇東街"}},{"type":"Feature","geometry":{"type":"Point","coordinates":[121.548004,24.871714]},"properties":{"name":"烏來商圈","address":"新北市烏來區新烏路五段111號"}},{"type":"Feature","geometry":{"type":"Point","coordinates":[121.738798,25.025679]},"properties":{"name":"平溪商圈","address":"新北市平溪區平溪街32號"}},{"type":"Feature","geometry":{"type":"Point","coordinates":[121.865214,25.034963]},"properties":{"name":"雙溪商圈","address":"新北市雙溪區長安街"}},{"type":"Feature","geometry":{"type":"Point","coordinates":[121.843914,25.108323]},"properties":{"name":"九份商圈","address":"新北市瑞芳區基山街"}},{"type":"Feature","geometry":{"type":"Point","coordinates":[121.640529,25.221343]},"properties":{"name":"金山商圈","address":"新北市金山區金包里街"}},{"type":"Feature","geometry":{"type":"Point","coordinates":[121.712099,24.936365]},"properties":{"name":"坪林商圈","address":"新北市坪林區坪林街18號"}}]}